{"fetched_at":"2026-03-29T16:36:15Z","count":15609,"tles":[{"name":"SKYSAT-C9","line1":"1 42989U 17068C   26087.95638544  .00017080  00000+0  43625-3 0  9999","line2":"2 42989  97.4290 224.3715 0009730  71.0783 289.1517 15.39495883470407","category":"Other"}]}